{
  "type": "FeatureCollection",
  "features": [
    {
      "type": "Feature",
      "properties": {
        "norad_id": 60182,
        "name": "ALOS-4 (DAICHI-4)",
        "group": "resource",
        "lat": 47.90521749212915,
        "lon": -77.29938770336025,
        "alt_km": 625.9262758698169,
        "timestamp": "2025-12-25T03:55:55.964263+00:00",
        "meta_object_name": "ALOS-4 (DAICHI-4)",
        "meta_object_id": "2024-123A",
        "meta_epoch": "2025-12-24T09:29:07.451232",
        "meta_mean_motion": 14.79477942,
        "meta_eccentricity": 0.0001332,
        "meta_inclination": 97.9223,
        "meta_ra_of_asc_node": 93.0761,
        "meta_arg_of_pericenter": 100.4362,
        "meta_mean_anomaly": 259.7,
        "meta_ephemeris_type": 0,
        "meta_classification_type": "U",
        "meta_norad_cat_id": 60182,
        "meta_element_set_no": 999,
        "meta_rev_at_epoch": 8003,
        "meta_bstar": 0.00024039,
        "meta_mean_motion_dot": 1.744e-05,
        "meta_mean_motion_ddot": 0,
        "tle_line1": "1 60182U 24123A   25358.39522513  .00001744  00000+0  24039-3 0  9998",
        "tle_line2": "2 60182  97.9223  93.0761 0001332 100.4362 259.7000 14.79477942 80030"
      },
      "geometry": {
        "type": "Point",
        "coordinates": [
          -77.29938770336025,
          47.90521749212915
        ]
      }
    },
    {
      "type": "Feature",
      "properties": {
        "norad_id": 60452,
        "name": "LEGION 3",
        "group": "resource",
        "lat": 44.22955169317749,
        "lon": -13.417108116304075,
        "alt_km": 522.0416304558612,
        "timestamp": "2025-12-25T03:55:55.964274+00:00",
        "meta_object_name": "LEGION 3",
        "meta_object_id": "2024-146A",
        "meta_epoch": "2025-12-24T19:35:14.597088",
        "meta_mean_motion": 15.15879755,
        "meta_eccentricity": 0.0015735,
        "meta_inclination": 45.0001,
        "meta_ra_of_asc_node": 245.3882,
        "meta_arg_of_pericenter": 263.0242,
        "meta_mean_anomaly": 96.8847,
        "meta_ephemeris_type": 0,
        "meta_classification_type": "U",
        "meta_norad_cat_id": 60452,
        "meta_element_set_no": 999,
        "meta_rev_at_epoch": 7556,
        "meta_bstar": 0.00027807,
        "meta_mean_motion_dot": 5.166e-05,
        "meta_mean_motion_ddot": 0,
        "tle_line1": "1 60452U 24146A   25358.81614117  .00005166  00000+0  27807-3 0  9990",
        "tle_line2": "2 60452  45.0001 245.3882 0015735 263.0242  96.8847 15.15879755 75569"
      },
      "geometry": {
        "type": "Point",
        "coordinates": [
          -13.417108116304075,
          44.22955169317749
        ]
      }
    },
    {
      "type": "Feature",
      "properties": {
        "norad_id": 60453,
        "name": "LEGION 4",
        "group": "resource",
        "lat": 44.32309781995215,
        "lon": 77.89456814157725,
        "alt_km": 510.1926669327413,
        "timestamp": "2025-12-25T03:55:55.964285+00:00",
        "meta_object_name": "LEGION 4",
        "meta_object_id": "2024-146B",
        "meta_epoch": "2025-12-24T19:35:26.936736",
        "meta_mean_motion": 15.15951122,
        "meta_eccentricity": 0.0008151,
        "meta_inclination": 45.0396,
        "meta_ra_of_asc_node": 337.1732,
        "meta_arg_of_pericenter": 18.3144,
        "meta_mean_anomaly": 341.8028,
        "meta_ephemeris_type": 0,
        "meta_classification_type": "U",
        "meta_norad_cat_id": 60453,
        "meta_element_set_no": 999,
        "meta_rev_at_epoch": 7441,
        "meta_bstar": 0.00034448,
        "meta_mean_motion_dot": 6.465e-05,
        "meta_mean_motion_ddot": 0,
        "tle_line1": "1 60453U 24146B   25358.81628399  .00006465  00000+0  34448-3 0  9990",
        "tle_line2": "2 60453  45.0396 337.1732 0008151  18.3144 341.8028 15.15951122 74413"
      },
      "geometry": {
        "type": "Point",
        "coordinates": [
          77.89456814157725,
          44.32309781995215
        ]
      }
    },
    {
      "type": "Feature",
      "properties": {
        "norad_id": 60989,
        "name": "SENTINEL-2C",
        "group": "resource",
        "lat": -61.694478145260284,
        "lon": -124.7869910505279,
        "alt_km": 796.9139997775137,
        "timestamp": "2025-12-25T03:55:55.964296+00:00",
        "meta_object_name": "SENTINEL-2C",
        "meta_object_id": "2024-157A",
        "meta_epoch": "2025-12-24T20:05:14.530272",
        "meta_mean_motion": 14.30817119,
        "meta_eccentricity": 0.0001393,
        "meta_inclination": 98.5667,
        "meta_ra_of_asc_node": 71.1444,
        "meta_arg_of_pericenter": 103.542,
        "meta_mean_anomaly": 256.5918,
        "meta_ephemeris_type": 0,
        "meta_classification_type": "U",
        "meta_norad_cat_id": 60989,
        "meta_element_set_no": 999,
        "meta_rev_at_epoch": 6805,
        "meta_bstar": 7.2468e-05,
        "meta_mean_motion_dot": 1.46e-06,
        "meta_mean_motion_ddot": 0,
        "tle_line1": "1 60989U 24157A   25358.83697373  .00000146  00000+0  72468-4 0  9991",
        "tle_line2": "2 60989  98.5667  71.1444 0001393 103.5420 256.5918 14.30817119 68057"
      },
      "geometry": {
        "type": "Point",
        "coordinates": [
          -124.7869910505279,
          -61.694478145260284
        ]
      }
    },
    {
      "type": "Feature",
      "properties": {
        "norad_id": 61735,
        "name": "IONOSFERA-M 1",
        "group": "resource",
        "lat": 32.02061887761572,
        "lon": 54.43684834774786,
        "alt_km": 814.4773264331625,
        "timestamp": "2025-12-25T03:55:55.964309+00:00",
        "meta_object_name": "IONOSFERA-M 1",
        "meta_object_id": "2024-199A",
        "meta_epoch": "2025-12-24T20:29:23.752896",
        "meta_mean_motion": 14.22716632,
        "meta_eccentricity": 3.62e-05,
        "meta_inclination": 98.7403,
        "meta_ra_of_asc_node": 228.6085,
        "meta_arg_of_pericenter": 6.1011,
        "meta_mean_anomaly": 354.0171,
        "meta_ephemeris_type": 0,
        "meta_classification_type": "U",
        "meta_norad_cat_id": 61735,
        "meta_element_set_no": 999,
        "meta_rev_at_epoch": 10291,
        "meta_bstar": 4.7736e-05,
        "meta_mean_motion_dot": 6.3e-07,
        "meta_mean_motion_ddot": 0,
        "tle_line1": "1 61735U 24199A   25358.85374714  .00000063  00000+0  47736-4 0  9998",
        "tle_line2": "2 61735  98.7403 228.6085 0000362   6.1011 354.0171 14.22716632102914"
      },
      "geometry": {
        "type": "Point",
        "coordinates": [
          54.43684834774786,
          32.02061887761572
        ]
      }
    },
    {
      "type": "Feature",
      "properties": {
        "norad_id": 61736,
        "name": "IONOSFERA-M 2",
        "group": "resource",
        "lat": -29.521636147437615,
        "lon": -126.17440806138708,
        "alt_km": 822.7788873629224,
        "timestamp": "2025-12-25T03:55:55.964320+00:00",
        "meta_object_name": "IONOSFERA-M 2",
        "meta_object_id": "2024-199B",
        "meta_epoch": "2025-12-24T21:19:15.701952",
        "meta_mean_motion": 14.22718788,
        "meta_eccentricity": 0.0001855,
        "meta_inclination": 98.7395,
        "meta_ra_of_asc_node": 228.5552,
        "meta_arg_of_pericenter": 94.8709,
        "meta_mean_anomaly": 265.268,
        "meta_ephemeris_type": 0,
        "meta_classification_type": "U",
        "meta_norad_cat_id": 61736,
        "meta_element_set_no": 999,
        "meta_rev_at_epoch": 10604,
        "meta_bstar": 4.319e-05,
        "meta_mean_motion_dot": 5.3e-07,
        "meta_mean_motion_ddot": 0,
        "tle_line1": "1 61736U 24199B   25358.88837618  .00000053  00000+0  43190-4 0  9998",
        "tle_line2": "2 61736  98.7395 228.5552 0001855  94.8709 265.2680 14.22718788106049"
      },
      "geometry": {
        "type": "Point",
        "coordinates": [
          -126.17440806138708,
          -29.521636147437615
        ]
      }
    },
    {
      "type": "Feature",
      "properties": {
        "norad_id": 63772,
        "name": "BIOMASS",
        "group": "resource",
        "lat": 3.4824584500352023,
        "lon": -176.5023814518515,
        "alt_km": 671.336939469561,
        "timestamp": "2025-12-25T03:55:55.964331+00:00",
        "meta_object_name": "BIOMASS",
        "meta_object_id": "2025-090A",
        "meta_epoch": "2025-12-24T18:05:52.747008",
        "meta_mean_motion": 14.67536543,
        "meta_eccentricity": 0.0001046,
        "meta_inclination": 98.0696,
        "meta_ra_of_asc_node": 183.5887,
        "meta_arg_of_pericenter": 84.267,
        "meta_mean_anomaly": 275.8654,
        "meta_ephemeris_type": 0,
        "meta_classification_type": "U",
        "meta_norad_cat_id": 63772,
        "meta_element_set_no": 999,
        "meta_rev_at_epoch": 3510,
        "meta_bstar": 0.00022217,
        "meta_mean_motion_dot": 1.212e-05,
        "meta_mean_motion_ddot": 0,
        "tle_line1": "1 63772U 25090A   25358.75408272  .00001212  00000+0  22217-3 0  9991",
        "tle_line2": "2 63772  98.0696 183.5887 0001046  84.2670 275.8654 14.67536543 35103"
      },
      "geometry": {
        "type": "Point",
        "coordinates": [
          -176.5023814518515,
          3.4824584500352023
        ]
      }
    }
  ]
}